start=new Date('2023-03-02T00:00:00.000Z').valueOf();
sats=[{"PERIOD":"95.593","COUNTRY_CODE":"US","SITE":"AFETR","ARG_OF_PERICENTER":"77.1523","RCS_SIZE":"LARGE","MEAN_ANOMALY":"282.9633","TIME_SYSTEM":"UTC","REV_AT_EPOCH":"10981","REF_FRAME":"TEME","RA_OF_ASC_NODE":"187.2315","NORAD_CAT_ID":"47876","OBJECT_ID":"2021-021S","CLASSIFICATION_TYPE":"U","ELEMENT_SET_NO":"999","OBJECT_NAME":"STARLINK-2332","MEAN_MOTION_DOT":"0.00020603","MEAN_MOTION":"15.06381582","DECAY_DATE":null,"MEAN_ELEMENT_THEORY":"SGP4","EPHEMERIS_TYPE":"0","MEAN_MOTION_DDOT":"0.0000000000000","INCLINATION":"53.0544","OBJECT_TYPE":"PAYLOAD","LAUNCH_DATE":"2021-03-14","BSTAR":"0.00139870000000","PERIAPSIS":"546.236","FILE":"3848834","CENTER_NAME":"EARTH","EPOCH":"2023-03-01T18:51:47.065824","SEMIMAJOR_AXIS":"6925.405","GP_ID":"227318015","TLE_LINE2":"2 47876  53.0544 187.2315 0001493  77.1523 282.9633 15.06381582109815","ECCENTRICITY":"0.00014930","APOAPSIS":"548.304","TLE_LINE1":"1 47876U 21021S   23060.78596141  .00020603  00000-0  13987-2 0  9991"},{"EPHEMERIS_TYPE":"0","MEAN_MOTION":"15.06377795","DECAY_DATE":null,"MEAN_ELEMENT_THEORY":"SGP4","ELEMENT_SET_NO":"999","OBJECT_NAME":"STARLINK-2333","MEAN_MOTION_DOT":"-0.00000201","REV_AT_EPOCH":"10976","REF_FRAME":"TEME","RA_OF_ASC_NODE":"188.3588","NORAD_CAT_ID":"47877","OBJECT_ID":"2021-021T","CLASSIFICATION_TYPE":"U","RCS_SIZE":"LARGE","MEAN_ANOMALY":"238.6686","TIME_SYSTEM":"UTC","SITE":"AFETR","ARG_OF_PERICENTER":"121.4374","PERIOD":"95.594","COUNTRY_CODE":"US","TLE_LINE2":"2 47877  53.0502 188.3588 0000726 121.4374 238.6686 15.06377795109760","APOAPSIS":"547.784","ECCENTRICITY":"0.00007260","TLE_LINE1":"1 47877U 21021T   23060.53531760 -.00000201  00000-0  53829-5 0  9996","GP_ID":"227318762","SEMIMAJOR_AXIS":"6925.417","FILE":"3848834","CENTER_NAME":"EARTH","EPOCH":"2023-03-01T12:50:51.440640","OBJECT_TYPE":"PAYLOAD","LAUNCH_DATE":"2021-03-14","BSTAR":"0.00000538290000","PERIAPSIS":"546.779","INCLINATION":"53.0502","MEAN_MOTION_DDOT":"0.0000000000000"},{"TLE_LINE2":"2 47878  53.0520 188.3060 0001413  73.3610 286.7534 15.06387179109569","APOAPSIS":"548.231","ECCENTRICITY":"0.00014130","TLE_LINE1":"1 47878U 21021U   23060.54637310  .00018363  00000-0  12489-2 0  9997","GP_ID":"227317514","SEMIMAJOR_AXIS":"6925.388","EPOCH":"2023-03-01T13:06:46.635840","FILE":"3848834","CENTER_NAME":"EARTH","BSTAR":"0.00124890000000","PERIAPSIS":"546.274","OBJECT_TYPE":"PAYLOAD","LAUNCH_DATE":"2021-03-14","INCLINATION":"53.0520","MEAN_MOTION_DDOT":"0.0000000000000","EPHEMERIS_TYPE":"0","MEAN_ELEMENT_THEORY":"SGP4","MEAN_MOTION":"15.06387179","DECAY_DATE":null,"MEAN_MOTION_DOT":"0.00018363","ELEMENT_SET_NO":"999","OBJECT_NAME":"STARLINK-2335","RA_OF_ASC_NODE":"188.3060","REF_FRAME":"TEME","NORAD_CAT_ID":"47878","OBJECT_ID":"2021-021U","CLASSIFICATION_TYPE":"U","REV_AT_EPOCH":"10956","TIME_SYSTEM":"UTC","RCS_SIZE":"LARGE","MEAN_ANOMALY":"286.7534","SITE":"AFETR","ARG_OF_PERICENTER":"73.3610","COUNTRY_CODE":"US","PERIOD":"95.593"},{"OBJECT_TYPE":"PAYLOAD","LAUNCH_DATE":"2021-03-14","BSTAR":"0.00176420000000","PERIAPSIS":"546.418","MEAN_MOTION_DDOT":"0.0000000000000","INCLINATION":"53.0523","GP_ID":"227317764","APOAPSIS":"548.095","TLE_LINE2":"2 47879  53.0523 202.7294 0001211 103.0219 257.0905 15.06385902109751","ECCENTRICITY":"0.00012110","TLE_LINE1":"1 47879U 21021V   23060.67583898  .00026084  00000-0  17642-2 0  9998","FILE":"3848834","CENTER_NAME":"EARTH","EPOCH":"2023-03-01T16:13:12.487872","SEMIMAJOR_AXIS":"6925.392","SITE":"AFETR","ARG_OF_PERICENTER":"103.0219","RCS_SIZE":"LARGE","MEAN_ANOMALY":"257.0905","TIME_SYSTEM":"UTC","PERIOD":"95.593","COUNTRY_CODE":"US","DECAY_DATE":null,"MEAN_MOTION":"15.06385902","MEAN_ELEMENT_THEORY":"SGP4","EPHEMERIS_TYPE":"0","REV_AT_EPOCH":"10975","RA_OF_ASC_NODE":"202.7294","REF_FRAME":"TEME","NORAD_CAT_ID":"47879","OBJECT_ID":"2021-021V","CLASSIFICATION_TYPE":"U","ELEMENT_SET_NO":"999","OBJECT_NAME":"STARLINK-2336","MEAN_MOTION_DOT":"0.00026084"},{"EPHEMERIS_TYPE":"0","DECAY_DATE":null,"MEAN_MOTION":"15.06396094","MEAN_ELEMENT_THEORY":"SGP4","OBJECT_NAME":"STARLINK-2337","ELEMENT_SET_NO":"999","MEAN_MOTION_DOT":"-0.00001003","REV_AT_EPOCH":"10963","CLASSIFICATION_TYPE":"U","OBJECT_ID":"2021-021W","REF_FRAME":"TEME","NORAD_CAT_ID":"47880","RA_OF_ASC_NODE":"198.1480","MEAN_ANOMALY":"261.1220","RCS_SIZE":"LARGE","TIME_SYSTEM":"UTC","SITE":"AFETR","ARG_OF_PERICENTER":"98.9914","PERIOD":"95.592","COUNTRY_CODE":"US","TLE_LINE1":"1 47880U 21021W   23060.58230836 -.00001003  00000-0 -48440-4 0  9999","TLE_LINE2":"2 47880  53.0528 198.1480 0001282  98.9914 261.1220 15.06396094109632","APOAPSIS":"548.113","ECCENTRICITY":"0.00012820","GP_ID":"227318515","SEMIMAJOR_AXIS":"6925.361","CENTER_NAME":"EARTH","FILE":"3848834","EPOCH":"2023-03-01T13:58:31.442304","LAUNCH_DATE":"2021-03-14","OBJECT_TYPE":"PAYLOAD","PERIAPSIS":"546.338","BSTAR":"-0.00004844000000","INCLINATION":"53.0528","MEAN_MOTION_DDOT":"0.0000000000000"},{"NORAD_CAT_ID":"47881","REF_FRAME":"TEME","RA_OF_ASC_NODE":"197.7281","CLASSIFICATION_TYPE":"U","OBJECT_ID":"2021-021X","REV_AT_EPOCH":"10961","MEAN_MOTION_DOT":"0.00020958","ELEMENT_SET_NO":"999","OBJECT_NAME":"STARLINK-2339","MEAN_ELEMENT_THEORY":"SGP4","DECAY_DATE":null,"MEAN_MOTION":"15.06387588","EPHEMERIS_TYPE":"0","COUNTRY_CODE":"US","PERIOD":"95.593","SITE":"AFETR","ARG_OF_PERICENTER":"102.4466","TIME_SYSTEM":"UTC","RCS_SIZE":"LARGE","MEAN_ANOMALY":"257.6652","EPOCH":"2023-03-01T16:11:13.146144","FILE":"3848834","CENTER_NAME":"EARTH","SEMIMAJOR_AXIS":"6925.387","GP_ID":"227318263","ECCENTRICITY":"0.00011540","TLE_LINE2":"2 47881  53.0554 197.7281 0001154 102.4466 257.6652 15.06387588109612","APOAPSIS":"548.051","TLE_LINE1":"1 47881U 21021X   23060.67445771  .00020958  00000-0  14222-2 0  9993","MEAN_MOTION_DDOT":"0.0000000000000","INCLINATION":"53.0554","BSTAR":"0.00142220000000","PERIAPSIS":"546.452","OBJECT_TYPE":"PAYLOAD","LAUNCH_DATE":"2021-03-14"},{"SEMIMAJOR_AXIS":"6925.360","EPOCH":"2023-03-01T18:46:27.998400","FILE":"3848834","CENTER_NAME":"EARTH","TLE_LINE2":"2 47882  53.0540 187.2520 0001374  80.0559 280.0585 15.06396139109972","APOAPSIS":"548.177","ECCENTRICITY":"0.00013740","TLE_LINE1":"1 47882U 21021Y   23060.78226850  .00025088  00000-0  16973-2 0  9995","GP_ID":"227317015","INCLINATION":"53.0540","MEAN_MOTION_DDOT":"0.0000000000000","BSTAR":"0.00169730000000","PERIAPSIS":"546.274","OBJECT_TYPE":"PAYLOAD","LAUNCH_DATE":"2021-03-14","MEAN_MOTION_DOT":"0.00025088","ELEMENT_SET_NO":"999","OBJECT_NAME":"STARLINK-2340","REF_FRAME":"TEME","RA_OF_ASC_NODE":"187.2520","NORAD_CAT_ID":"47882","CLASSIFICATION_TYPE":"U","OBJECT_ID":"2021-021Y","REV_AT_EPOCH":"10997","EPHEMERIS_TYPE":"0","MEAN_ELEMENT_THEORY":"SGP4","DECAY_DATE":null,"MEAN_MOTION":"15.06396139","COUNTRY_CODE":"US","PERIOD":"95.592","TIME_SYSTEM":"UTC","RCS_SIZE":"LARGE","MEAN_ANOMALY":"280.0585","ARG_OF_PERICENTER":"80.0559","SITE":"AFETR"},{"INCLINATION":"53.0500","MEAN_MOTION_DDOT":"0.0000000000000","LAUNCH_DATE":"2021-03-14","OBJECT_TYPE":"PAYLOAD","PERIAPSIS":"546.586","BSTAR":"-0.00008110700000","SEMIMAJOR_AXIS":"6925.422","CENTER_NAME":"EARTH","FILE":"3848834","EPOCH":"2023-03-01T13:19:22.292832","TLE_LINE1":"1 47883U 21021Z   23060.55511913 -.00001488  00000-0 -81107-4 0  9991","TLE_LINE2":"2 47883  53.0500 193.2725 0001013 101.8390 258.2712 15.06375976109872","APOAPSIS":"547.989","ECCENTRICITY":"0.00010130","GP_ID":"227317265","PERIOD":"95.594","COUNTRY_CODE":"US","MEAN_ANOMALY":"258.2712","RCS_SIZE":"LARGE","TIME_SYSTEM":"UTC","ARG_OF_PERICENTER":"101.8390","SITE":"AFETR","OBJECT_NAME":"STARLINK-2342","ELEMENT_SET_NO":"999","MEAN_MOTION_DOT":"-0.00001488","REV_AT_EPOCH":"10987","CLASSIFICATION_TYPE":"U","OBJECT_ID":"2021-021Z","REF_FRAME":"TEME","RA_OF_ASC_NODE":"193.2725","NORAD_CAT_ID":"47883","EPHEMERIS_TYPE":"0","DECAY_DATE":null,"MEAN_MOTION":"15.06375976","MEAN_ELEMENT_THEORY":"SGP4"},{"CENTER_NAME":"EARTH","FILE":"3848834","EPOCH":"2023-03-01T12:54:50.170752","SEMIMAJOR_AXIS":"6925.391","GP_ID":"227318016","TLE_LINE1":"1 47884U 21021AA  23060.53808068  .00002571  00000-0  19152-3 0  9992","APOAPSIS":"548.414","TLE_LINE2":"2 47884  53.0520 198.3486 0001673  58.1283 301.9868 15.06386200109625","ECCENTRICITY":"0.00016730","MEAN_MOTION_DDOT":"0.0000000000000","INCLINATION":"53.0520","LAUNCH_DATE":"2021-03-14","OBJECT_TYPE":"PAYLOAD","PERIAPSIS":"546.097","BSTAR":"0.00019152000000","REV_AT_EPOCH":"10962","OBJECT_ID":"2021-021AA","CLASSIFICATION_TYPE":"U","NORAD_CAT_ID":"47884","RA_OF_ASC_NODE":"198.3486","REF_FRAME":"TEME","OBJECT_NAME":"STARLINK-2343","ELEMENT_SET_NO":"999","MEAN_MOTION_DOT":"0.00002571","DECAY_DATE":null,"MEAN_MOTION":"15.06386200","MEAN_ELEMENT_THEORY":"SGP4","EPHEMERIS_TYPE":"0","PERIOD":"95.593","COUNTRY_CODE":"US","ARG_OF_PERICENTER":"58.1283","SITE":"AFETR","MEAN_ANOMALY":"301.9868","RCS_SIZE":"LARGE","TIME_SYSTEM":"UTC"},{"EPHEMERIS_TYPE":"0","MEAN_ELEMENT_THEORY":"SGP4","MEAN_MOTION":"15.06388919","DECAY_DATE":null,"MEAN_MOTION_DOT":"0.00003656","ELEMENT_SET_NO":"999","OBJECT_NAME":"STARLINK-2344","REF_FRAME":"TEME","NORAD_CAT_ID":"47885","RA_OF_ASC_NODE":"201.8823","OBJECT_ID":"2021-021AB","CLASSIFICATION_TYPE":"U","REV_AT_EPOCH":"10976","TIME_SYSTEM":"UTC","RCS_SIZE":"LARGE","MEAN_ANOMALY":"256.3908","ARG_OF_PERICENTER":"103.7255","SITE":"AFETR","COUNTRY_CODE":"US","PERIOD":"95.593","TLE_LINE2":"2 47885  53.0511 201.8823 0001571 103.7255 256.3908 15.06388919109766","APOAPSIS":"548.335","ECCENTRICITY":"0.00015710","TLE_LINE1":"1 47885U 21021AB  23060.86381980  .00003656  00000-0  26428-3 0  9997","GP_ID":"227318763","SEMIMAJOR_AXIS":"6925.383","EPOCH":"2023-03-01T20:43:54.030720","FILE":"3848834","CENTER_NAME":"EARTH","BSTAR":"0.00026428000000","PERIAPSIS":"546.160","OBJECT_TYPE":"PAYLOAD","LAUNCH_DATE":"2021-03-14","INCLINATION":"53.0511","MEAN_MOTION_DDOT":"0.0000000000000"}];
